332P-F/Ikeya-Murakami,e,9.5293,3.4757,152.8203,3.163214,0.1751908,0.49918860,359.8501,03/17.0/2016,2000,g 21.0,4.0
# From MPEC 2016-ED0
332P-G/Ikeya-Murakami,e,9.2523,3.6955,154.4000,3.050519,0.1849880,0.49200362,359.9006,03/19.0/2016,2000,g 19.0,4.0
# From MPC100285
332P-H/Ikeya-Murakami,e,9.3794,3.7874,152.3348,3.089428,0.1815043,0.48952614,344.2632,05/24.0/2021,2000,g 19.0,4.0
# From MPEC 2016-ED0
332P-I/Ikeya-Murakami,e,9.3791,3.8048,152.3297,3.081767,0.1821815,0.48955490,359.9360,03/17.0/2016,2000,g 20.5,2.0
# From MPEC 2016-EI8
332P-J/Ikeya-Murakami,e,9.4296,3.6729,152.7712,3.115165,0.1792596,0.49429435,359.8613,03/17.0/2016,2000,g 20.5,2.0
# From MPEC 2020-L06
333P/LINEAR,e,131.9803,115.6256,26.0076,4.219112,0.1137293,0.73678568,213.8119,05/24.0/2021,2000,g 15.0,4.0
# From MPC115888
334P/NEAT,e,20.4341,90.6781,90.0676,6.838668,0.0551121,0.35168736,79.7502,05/24.0/2021,2000,g 10.5,4.0
# From MPC100285
335P/Gibbs,e,7.2935,330.8482,162.2672,3.577951,0.1456305,0.54583119,295.1868,05/24.0/2021,2000,g 17.0,4.0
# From MPC105244
336P/McNaught,e,17.8336,298.2311,308.7582,5.032394,0.0873056,0.44508446,137.2045,05/24.0/2021,2000,g 13.5,4.0
# From MPC115888
337P/WISE,e,15.3721,106.0692,161.0008,3.287166,0.1653756,0.49678917,293.3393,05/24.0/2021,2000,g 17.0,4.0
# From MPC104796
338P/McNaught,e,25.3793,9.7902,4.4024,3.897092,0.1281130,0.41146228,210.4828,05/24.0/2021,2000,g 12.0,4.0
# From MPC101101
339P/Gibbs,e,5.7339,172.7326,27.5154,3.696658,0.1386724,0.63557198,245.0260,05/24.0/2021,2000,g 17.0,4.0
# From MPC102957
340P/Boattini,e,2.0793,291.7206,35.8476,4.251190,0.1124445,0.28077521,185.0068,05/24.0/2021,2000,g 13.0,4.0
# From MPEC 2021-BE3
341P/Gibbs,e,3.7956,29.9800,312.1548,4.293399,0.1107904,0.41547732,201.7083,05/24.0/2021,2000,g 12.5,4.0
# From MPC101101
342P/SOHO,e,11.6662,27.7743,73.2064,3.043083,0.1856665,0.98278886,0.0000,10/19.2948/2021,2000,g  9.0,4.0
# From MPC109148
343P/NEAT-LONEOS,e,5.5845,257.2043,137.3772,5.460320,0.0772462,0.58423048,121.7838,05/24.0/2021,2000,g 14.0,4.0
# From MPC109148
344P/Read,e,3.4909,273.1730,140.3821,4.865591,0.0918334,0.42195301,152.9178,05/24.0/2021,2000,g 13.0,4.0
# From MPC109148
345P/LINEAR,e,2.7271,154.5056,196.3957,4.038708,0.1214340,0.22102999,215.0605,05/24.0/2021,2000,g 12.0,4.0
# From MPC110086
346P/Catalina,e,22.1870,102.4658,335.9777,4.475707,0.1040906,0.50238614,162.4407,05/24.0/2021,2000,g 14.0,4.0
# From MPC108599
347P/PANSTARRS,e,11.7496,261.0310,98.3349,3.606101,0.1439287,0.38575299,246.7141,05/24.0/2021,2000,g 15.0,4.0
# From MPEC 2020-SI8
348P/PANSTARRS,e,17.7405,312.9418,135.6288,3.150326,0.1762669,0.30669457,313.3884,05/24.0/2021,2000,g 14.0,4.0
# From MPC112394
349P/Lemmon,e,5.4909,331.7438,256.0433,3.573208,0.1459206,0.29898783,199.5637,05/24.0/2021,2000,g 14.0,4.0
# From MPC111775
350P/McNaught,e,7.3575,65.3363,140.1791,4.091465,0.1190929,0.09153657,149.5897,05/24.0/2021,2000,g 14.0,4.0
# From MPC105244
351P/Wiegert-PANSTARRS,e,12.7879,283.4485,352.6649,4.437573,0.1054352,0.29585686,212.2339,05/24.0/2021,2000,g 12.5,4.0
# From MPC110086
352P/Skiff,e,21.0091,28.0638,309.1939,6.637817,0.0576323,0.61822675,82.4972,05/24.0/2021,2000,g 11.5,4.0
# From MPEC 2020-AA5
353P/McNaught,e,28.4240,121.5614,230.3848,4.171254,0.1156922,0.47013593,144.5113,05/24.0/2021,2000,g 14.5,4.0
# From MPC105545
354P/LINEAR,e,5.2556,320.1289,132.9574,2.289568,0.2844944,0.12567551,111.4576,05/24.0/2021,2000,g 15.5,4.0
# From MPEC 2020-AA5
355P/LINEAR-NEAT,e,11.0394,51.4326,336.2527,3.471804,0.1523601,0.50718737,200.9485,05/24.0/2021,2000,g 15.5,2.0
# From MPEC 2021-F20
356P/WISE,e,9.6371,160.7941,225.9924,4.159685,0.1161752,0.35501426,145.6363,05/24.0/2021,2000,g 14.0,4.0
# From MPC114609
357P/Hill,e,6.3115,44.5701,1.3970,4.460616,0.1046193,0.43480157,114.1387,05/24.0/2021,2000,g 15.5,4.0
# From MPEC 2020-HN5
358P/PANSTARRS,e,11.0579,85.7077,299.7298,3.147676,0.1764896,0.23842852,200.8959,05/24.0/2021,2000,g 18.0,4.0
# From MPC110086
359P/LONEOS,e,10.2670,149.7559,200.1581,4.639635,0.0986230,0.32409737,135.2481,05/24.0/2021,2000,g 13.5,4.0
# From MPC108599
360P/WISE,e,24.1046,2.1902,354.1274,3.702240,0.1383589,0.49890514,190.0290,05/24.0/2021,2000,g 19.5,6.0
# From MPC114609
361P/Spacewatch,e,13.8923,203.2504,219.0566,4.938761,0.0898002,0.43805040,94.9001,05/24.0/2021,2000,g 12.0,4.0
# From MPEC 2017-V13
362P/,e,15.5566,192.5689,53.7008,3.968884,0.1246527,0.27946030,216.2365,05/24.0/2021,2000,g 12.9,2.0
# From MPC114609
363P/Lemmon,e,5.3969,146.9334,341.2780,3.548535,0.1474451,0.52652711,173.3913,05/24.0/2021,2000,g 17.5,4.0
# From MPEC 2021-F20
364P/PANSTARRS,e,12.1403,46.1913,212.0059,2.879258,0.2017359,0.72221212,214.7877,05/24.0/2021,2000,g 17.0,2.0
# From MPC111775
365P/PANSTARRS,e,9.8267,87.2548,66.3338,3.175598,0.1741670,0.57715328,208.3977,05/24.0/2021,2000,g 17.0,4.0
# From MPC114610
366P/Spacewatch,e,8.8589,70.7585,153.1416,3.495735,0.1507982,0.34827481,156.5790,05/24.0/2021,2000,g 15.0,4.0
# From MPC112395
367P/Catalina,e,8.4625,58.7205,172.9083,3.505696,0.1501560,0.28025076,160.3871,05/24.0/2021,2000,g 17.5,2.0
# From MPC114610
368P/NEAT,e,15.4815,257.9431,118.7919,5.527057,0.0758513,0.62640597,74.5136,05/24.0/2021,2000,g 14.0,4.0
# From MPC114610
369P/Hill,e,10.3140,47.2956,13.1814,4.384408,0.1073588,0.55442918,102.1890,05/24.0/2021,2000,g 15.0,4.0
# From MPEC 2021-F20
370P/NEAT,e,19.4049,55.1174,356.6838,6.435045,0.0603777,0.61459792,65.1739,05/24.0/2021,2000,g 13.0,4.0
# From MPC114610
371P/LINEAR-Skiff,e,17.3776,67.3010,308.4629,4.181101,0.1152838,0.47664780,110.9076,05/24.0/2021,2000,g 16.0,4.0
# From MPEC 2020-K19
372P/McNaught,e,9.5101,325.8160,27.3008,4.504442,0.1030962,0.15271336,97.4276,05/24.0/2021,2000,g 13.5,4.0
# From MPEC 2021-F20
373P/Rinner,e,13.7614,231.9480,221.1019,3.803685,0.1328609,0.39219689,103.1304,05/24.0/2021,2000,g 14.5,4.0
# From MPC114610
374P/Larson,e,10.7635,7.9120,51.4928,4.973750,0.0888542,0.46252239,76.7944,05/24.0/2021,2000,g 14.0,4.0
# From MPEC 2021-F20
375P/Hill,e,17.3612,359.9443,119.4599,5.556508,0.0752491,0.65857789,66.5954,05/24.0/2021,2000,g 16.0,4.0
# From MPEC 2020-W26
376P/LONEOS,e,1.1913,314.7927,284.7973,5.836963,0.0698914,0.51745792,42.2823,05/24.0/2021,2000,g 12.5,4.0
# From MPEC 2020-FB5
377P/Scotti,e,9.0232,226.0600,355.0293,6.710683,0.0566962,0.25235911,17.9233,05/24.0/2021,2000,g  9.5,4.0
# From MPEC 2019-TG9
378P/McNaught,e,19.0634,94.4348,193.9224,6.383726,0.0611072,0.47062677,13.2071,05/24.0/2021,2000,g 12.0,4.0
# From MPC115889
379P/Spacewatch,e,12.4183,183.8317,31.0121,3.521934,0.1491188,0.33993794,98.6920,05/24.0/2021,2000,g 15.0,4.0
# From MPEC 2020-KB7
380P/PANSTARRS,e,8.2850,132.9863,88.6356,4.515337,0.1027233,0.33256374,74.0783,05/24.0/2021,2000,g 12.5,4.0
# From MPEC 2021-J28
381P/LINEAR-Spacewatch,e,28.3757,173.7716,173.1663,7.123474,0.0518402,0.68184582,31.3608,05/24.0/2021,2000,g 17.5,2.0
# From MPEC 2021-J28
382P/Larson,e,7.8492,175.2413,173.4736,6.379022,0.0611748,0.30998697,341.5052,05/24.0/2021,2000,g  8.0,4.0
# From MPC118844
383P/Christensen,e,12.3212,207.8702,133.6792,3.545234,0.1476511,0.59960466,85.0011,05/24.0/2021,2000,g 18.0,4.0
# From MPEC 2020-W26
384P/Kowalski,e,7.2837,354.2277,37.6226,2.901113,0.1994606,0.61556993,117.7776,05/24.0/2021,2000,g 19.5,4.0
# From MPEC 2021-F20
385P/Hill,e,16.8295,357.0623,44.3261,4.288395,0.1109844,0.40147502,68.4934,05/24.0/2021,2000,g 13.0,4.0
# From MPEC 2021-J28
386P/PANSTARRS,e,15.2296,134.9479,353.2271,4.056950,0.1206159,0.41630945,33.4972,05/24.0/2021,2000,g 14.5,4.0
# From MPEC 2021-J28
387P/Boattini,e,8.9186,259.3185,162.7729,4.798696,0.0937604,0.73609765,58.6733,05/24.0/2021,2000,g 15.0,4.0
# From MPEC 2021-F20
388P/Gibbs,e,23.8677,37.0429,42.3645,5.244335,0.0820670,0.61800452,55.0216,05/24.0/2021,2000,g 13.0,4.0
# From MPEC 2021-J28
389P/Siding Spring,e,160.0683,218.8517,249.3053,5.626907,0.0738413,0.70432825,37.7907,05/24.0/2021,2000,g 16.0,4.0
# From MPEC 2021-J28
390P/Gibbs,e,18.5613,152.2751,232.3514,5.803369,0.0704991,0.70711743,30.1534,05/24.0/2021,2000,g 12.0,4.0
# From MPEC 2021-F20
391P/Kowalski,e,21.2760,124.7307,186.9675,4.678797,0.0973874,0.12068720,112.9720,05/24.0/2021,2000,g  8.0,4.0
# From MPEC 2021-J28
392P/LINEAR,e,4.9302,24.8809,71.9650,6.146108,0.0646850,0.68279543,27.0521,05/24.0/2021,2000,g 14.5,4.0
# From MPEC 2021-BE3
393P/Spacewatch-Hill,e,16.7914,36.4168,328.2287,4.786486,0.0941193,0.12053867,54.2510,05/24.0/2021,2000,g 11.0,4.0
# From MPEC 2020-KB7
394P/PANSTARRS,e,8.5295,98.1249,54.5194,4.332130,0.1093080,0.36788124,59.1007,05/24.0/2021,2000,g 16.0,2.4
# From MPEC 2021-J28
395P/Catalina-NEAT,e,3.2777,223.7647,89.7937,6.539210,0.0589408,0.37839764,346.9827,05/24.0/2021,2000,g 10.0,4.0
# From MPEC 2020-KB7
396P/,e,5.4363,136.6637,8.6012,6.818398,0.0553580,0.41596446,35.1196,05/24.0/2021,2000,g 12.0,4.0
# From MPEC 2021-F20
397P/Lemmon,e,10.9283,8.2043,14.4325,3.827383,0.1316289,0.40505331,44.5729,05/24.0/2021,2000,g 12.0,4.0
# From MPEC 2021-J28
398P/Boattini,e,11.0154,127.4621,320.2355,3.128341,0.1781283,0.58263920,26.4082,05/24.0/2021,2000,g 15.5,4.0
# From MPEC 2021-F20
399P/PANSTARRS,e,13.3190,207.1464,214.2922,3.789051,0.1336314,0.44681925,0.1913,05/24.0/2021,2000,g 15.6,4.0
# From MPEC 2020-FB5
400P/PANSTARRS,e,10.9290,176.3961,238.7903,3.559634,0.1467561,0.40910959,15.1006,05/24.0/2021,2000,g 15.5,2.8
# From MPEC 2021-BE3
401P/McNaught,e,12.8038,359.8868,309.3242,5.772416,0.0710669,0.58012029,37.9051,05/24.0/2021,2000,g 12.5,4.0
# From MPEC 2021-J28
402P/LINEAR,e,30.8528,123.0889,326.7459,7.009823,0.0531060,0.43824133,349.1324,05/24.0/2021,2000,g  8.0,4.0
# From MPEC 2021-J28
403P/Catalina,e,12.3207,163.8130,277.6676,5.427180,0.0779548,0.50339863,19.4609,05/24.0/2021,2000,g 12.0,4.0
# From MPEC 2020-W26
404P/Bressi,e,9.7500,262.0017,161.4947,4.832220,0.0927863,0.13716615,281.5170,05/24.0/2021,2000,g 10.0,4.0
# From MPEC 2021-J28
405P/Lemmon,e,9.3652,3.3127,112.2433,3.609202,0.1437432,0.68916526,21.6602,05/24.0/2021,2000,g 17.5,4.0
# From MPEC 2021-F20
